CUTE-1 (CO-55)          
1 27844U 03031E   24164.31013162  .00000662  00000+0  31159-3 0  9991
2 27844  98.6764 171.4075 0010328 152.3431 207.8299 14.23272605 87098
CUBESAT XI-IV (CO-57)   
1 27848U 03031J   24164.52365948  .00000495  00000+0  24044-3 0  9999
2 27848  98.6793 171.8655 0009875 167.1072 193.0360 14.22712628 86921
CUBESAT XI-V            
1 28895U 05043F   24164.33208765  .00002696  00000+0  48121-3 0  9996
2 28895  98.2013 300.1522 0015800  17.5520 342.6227 14.67719789993976
CUTE-1.7+APD II (CO-65) 
1 32785U 08021C   24164.13647864  .00006199  00000+0  54673-3 0  9994
2 32785  97.7554 129.5061 0010698 354.8327   5.2782 14.96734145874720
AAUSAT-II               
1 32788U 08021F   24163.90014882  .00024932  00000+0  12494-2 0  9998
2 32788  97.5940 144.1254 0006084 164.6432 195.4987 15.17334781877521
SEEDS II (CO-66)        
1 32791U 08021J   24163.81112537  .00013769  00000+0  10048-2 0  9997
2 32791  97.6888 135.0106 0004508 342.2312  17.8755 15.03800282875710
SWISSCUBE               
1 35932U 09051B   24164.22606948  .00001947  00000+0  42411-3 0  9996
2 35932  98.4718  47.4387 0006885 344.9955  15.1038 14.59086251781836
BEESAT-1                
1 35933U 09051C   24164.22994240  .00001726  00000+0  37951-3 0  9990
2 35933  98.4651  48.3583 0005590   0.8454 359.2753 14.58817114781908
ITUPSAT1                
1 35935U 09051E   24164.17238572  .00001578  00000+0  35561-3 0  9995
2 35935  98.4747  48.0872 0007951   3.4534 356.6717 14.57772546781533
TISAT 1                 
1 36799U 10035E   24164.41643719  .00009469  00000+0  71733-3 0  9996
2 36799  98.0922  53.6471 0002570 213.3315 146.7747 15.02509040756543
M-CUBED & EXP-1 PRIME   
1 37855U 11061F   24164.23804429  .00498730  97312-4  17480-2 0  9995
2 37855 101.6828 348.4568 0031026 329.0370  30.9056 15.88358694692748
AEROCUBE 4.5A           
1 38767U 12048K   24163.80995051  .00015598  00000+0  84268-3 0  9997
2 38767  64.6615 331.4785 0106775  20.0393 340.4870 15.10049991259657
AEROCUBE 4.5B           
1 38768U 12048L   24164.25451441  .00025959  00000+0  93391-3 0  9997
2 38768  64.6553 255.7648 0088200   7.2220 353.0154 15.24887031260672
STRAND-1                
1 39090U 13009E   24164.26045636  .00000650  00000+0  23789-3 0  9995
2 39090  98.3813 352.6832 0007638 267.1854  92.8458 14.36083125591533
BRITE-AUSTRIA           
1 39091U 13009F   24164.23554865  .00000412  00000+0  15694-3 0  9994
2 39091  98.3856 351.9297 0009130 275.3567  84.6578 14.35813062591553
NEE-01 PEGASO           
1 39151U 13018B   24164.29663546  .00004010  00000+0  46667-3 0  9996
2 39151  98.0361 281.3588 0015837  59.2626 301.0146 14.85786266601248
ESTCUBE 1               
1 39161U 13021C   24164.12266405  .00003009  00000+0  43983-3 0  9991
2 39161  97.8278 230.7412 0007793 240.7421 119.3011 14.76400976596345
POPACS 1                
1 39268U 13055D   24164.00509730  .00038493  00000+0  66935-3 0  9991
2 39268  80.9809 157.2001 0411811 109.4580 255.1607 14.91645500559766
POPACS 2                
1 39269U 13055E   24163.50492792  .00017845  00000+0  41236-3 0  9990
2 39269  81.0019 245.5478 0550085 340.3445  17.7253 14.57020517555991
POPACS 3                
1 39270U 13055F   24163.41679543  .00019687  00000+0  53451-3 0  9991
2 39270  81.0084 296.1444 0628432 122.0797 244.3003 14.37099288552837
ZACUBE-1 (TSHEPISOSAT)  
1 39417U 13066B   24164.48357243  .00005388  00000+0  56179-3 0  9997
2 39417  97.7336 120.5588 0050899 173.9826 186.2014 14.89213668570885
WNISAT-1                
1 39423U 13066H   24164.55057656  .00001283  00000+0  25261-3 0  9995
2 39423  97.6710 359.2506 0170559  24.3282 336.5849 14.55284610559970
TRITON-1                
1 39427U 13066M   24164.50161828  .00004037  00000+0  56923-3 0  9990
2 39427  97.8422  82.6397 0104568  97.1611 264.1501 14.74047374565717
DELFI-N3XT              
1 39428U 13066N   24164.25911775  .00008678  00000+0  11045-2 0  9997
2 39428  97.8386  82.7229 0103004 104.3893 256.8778 14.78077528565362
GOMX-1                  
1 39430U 13066Q   24164.47075386  .00002168  00000+0  36691-3 0  9996
2 39430  97.7329  39.1398 0138454 267.8859  90.6485 14.64181697562351
CUBEBUG-2 (LO-74)       
1 39440U 13066AA  24163.84799654  .00006399  00000+0  75542-3 0  9996
2 39440  97.8128 107.6326 0068115 292.2757  67.1243 14.83371457567540
NEE-02 KRYSAOR          
1 39441U 13066AB  24164.09957797  .00004115  00000+0  52499-3 0  9999
2 39441  97.8225 103.7722 0073023 313.5317  45.9843 14.80146576567188
FUNCUBE-1 (AO-73)       
1 39444U 13066AE  24163.84812376  .00008659  00000+0  83841-3 0  9999
2 39444  97.7195 123.0476 0049007 156.5347 203.8124 14.92060917569311
UWE-3                   
1 39446U 13066AG  24163.86457370  .00005058  00000+0  56584-3 0  9996
2 39446  97.7808 113.7184 0058923 236.0721 123.4884 14.86085563567914
BRITE-CA1 (TORONTO)     
1 40020U 14033L   24164.45863307  .00002048  00000+0  33562-3 0  9995
2 40020  97.8773 301.7478 0084464 107.0930 253.9549 14.69440700534289
DUCHIFAT-1              
1 40021U 14033M   24163.91590849  .00015677  00000+0  10433-2 0  9997
2 40021  98.0895 147.4781 0014864 116.0968 244.1790 15.07145173543333
NANOSATC-BR1            
1 40024U 14033Q   24164.48222787  .00011032  00000+0  81771-3 0  9991
2 40024  98.0615 136.3891 0006560 172.9456 187.1861 15.03273440543062
QB50P1                  
1 40025U 14033R   24163.87937883  .00008252  00000+0  67282-3 0  9995
2 40025  98.0385 124.4663 0011364 175.1754 184.9580 14.99692118542081
QB50P2                  
1 40032U 14033Y   24164.44459752  .00006657  00000+0  56220-3 0  9998
2 40032  98.0068 116.7716 0009637 161.5856 198.5716 14.98420039542488
PERSEUS-M2              
1 40037U 14033AD  24164.25969066  .00002341  00000+0  24559-3 0  9992
2 40037  97.9269  95.0326 0012388 205.4676 154.5933 14.90466082541094
PERSEUS-M1              
1 40039U 14033AF  24164.28419575  .00003235  00000+0  33892-3 0  9995
2 40039  97.9073  91.1269 0012194 204.2497 155.8148 14.90242065540954
POLYITAN-1              
1 40042U 14033AJ  24163.89198165  .00011671  00000+0  88214-3 0  9995
2 40042  98.0719 127.9595 0015268 141.4649 218.7668 15.02443274542040
TIGRISAT                
1 40043U 14033AK  24163.99698854  .00002897  00000+0  39022-3 0  9990
2 40043  97.6955 326.9511 0054375 321.5713  38.1631 14.78918658536695
AEROCUBE 6A             
1 40045U 14033AM  24164.20257122  .00005866  00000+0  70507-3 0  9998
2 40045  97.6698 337.8794 0049188 298.5511  61.0757 14.83451716537058
AEROCUBE 6B             
1 40046U 14033AN  24164.24125022  .00006458  00000+0  76021-3 0  9991
2 40046  97.6667 336.6168 0047726 293.7520  65.8693 14.84324475537491
UKUBE-1                 
1 40074U 14037F   24164.51358035  .00006774  00000+0  64409-3 0  9996
2 40074  98.3429  94.1495 0005952  88.0234 272.1666 14.93803863538089
BRITE-PL2 (HEWELIUSZ)   
1 40119U 14049B   24164.24421658  .00003023  00000+0  32754-3 0  9993
2 40119  97.8826 263.9325 0016225  25.7785 334.4237 14.88875105531841
CP10 (EXOCUBE)          
1 40380U 15003E   24164.47830688  .00433229  76473-4  11884-2 0  9993
2 40380  99.0834 190.1673 0027631 132.6351 227.7254 15.93292167518702
AEROCUBE 5C             
1 40965U 15058B   24164.00502755  .00003378  00000+0  31894-3 0  9992
2 40965  64.7712  17.5628 0189994 309.7040  48.7448 14.82827777256275
AEROCUBE 7              
1 40966U 15058C   24164.02628399  .00004268  00000+0  38517-3 0  9996
2 40966  64.7690  11.3137 0184910 309.3217  49.1623 14.84710346256346
FOX-1A (AO-85)          
1 40967U 15058D   24163.99600076  .00003635  00000+0  34804-3 0  9996
2 40967  64.7789  31.4312 0189514 305.5154  52.8403 14.82224644  4221
BISONSAT                
1 40968U 15058E   24164.04222034  .00004516  00000+0  41279-3 0  9991
2 40968  64.7791  24.1070 0184312 304.4749  53.9066 14.84216575  7051
SNAP-3 ALICE            
1 40970U 15058G   24164.22106029  .00010610  00000+0  74454-3 0  9992
2 40970  64.7723 341.1327 0155319 302.2934  56.3214 14.96264913  5044
LMRST-SAT               
1 40971U 15058H   24163.97061703  .00003389  00000+0  32505-3 0  9999
2 40971  64.7780  27.0381 0190557 306.9174  51.4605 14.82168042  4228
SNAP-3 EDDIE            
1 40972U 15058J   24164.16558369  .00011211  00000+0  77680-3 0  9997
2 40972  64.7702 334.7277 0155828 303.2655  55.3609 14.96619120  7134
PROPCUBE 3              
1 40973U 15058K   24163.93508371  .00003891  00000+0  35728-3 0  9992
2 40973  64.7724  15.0163 0186987 308.2630  50.1779 14.83970188  5252
SINOD-D 1               
1 40974U 15058L   24163.87619690  .00007616  00000+0  59347-3 0  9995
2 40974  64.7694 349.7480 0168707 305.8858  52.6689 14.91264153  4975
SNAP-3 JIMI             
1 40975U 15058M   24163.96646638  .00005358  00000+0  45737-3 0  9997
2 40975  64.7708   3.0680 0179220 307.2017  51.2848 14.87106482  4257
PROPCUBE 1 (FLORA)      
1 40976U 15058N   24164.16365179  .00003912  00000+0  38647-3 0  9995
2 40976  64.7770  41.8434 0188513 308.0904  50.3328 14.81039390  7054
SINOD-D 3               
1 40977U 15058P   24164.02502259  .00004668  00000+0  44167-3 0  9996
2 40977  64.7765  35.6279 0183218 307.2975  51.1550 14.83014536  5267
VELOX-II                
1 41171U 15077F   24164.16410759  .00236620  00000+0  15884-2 0  9990
2 41171  14.9865  93.1901 0003359 306.3794  53.6225 15.73111742470998
HORYU-4                 
1 41340U 16012D   24163.87277980  .00014491  00000+0  72139-3 0  9999
2 41340  31.0034  10.2424 0010056 283.2142  76.7376 15.16344736457341
RAVAN                   
1 41849U 16067B   24164.22068429  .00011075  00000+0  61105-3 0  9995
2 41849  98.0649 341.6183 0013753  50.5561 309.6884 15.14067704415239
CELTEE 1                
1 41850U 16067C   24163.98577124  .00006708  00000+0  45797-3 0  9992
2 41850  98.1033 333.2158 0001384 139.8519 220.2809 15.06545195414644
